1 26871U 01031A   12057.10562895 -.00000292  00000-0  10000-3 0  4746
2 26871 002.0071 074.2073 0002604 312.2916 107.2414 01.00275329 38879